STARLINK-36453          
1 67341U 26003H   26034.25002315  .00047215  00000+0  80739-3 0  9993
2 67341  42.9995  62.9408 0001340 268.2251 356.1209 15.50522681  5134
STARLINK-36432          
1 67342U 26003J   26034.25002315  .00041863  00000+0  71690-3 0  9993
2 67342  42.9996  62.9359 0001186 264.3836   1.8737 15.50527933  5129
STARLINK-36458          
1 67343U 26003K   26034.25002315  .00040517  00000+0  69407-3 0  9992
2 67343  42.9995  62.9312 0001219 266.0780   2.0955 15.50530891  5135
STARLINK-36422          
1 67344U 26003L   26034.25002315  .00040016  00000+0  68563-3 0  9999
2 67344  42.9995  62.9254 0001111 264.5376   5.5521 15.50530101  5126
STARLINK-35676          
1 67345U 26003M   26034.25002315  .00039611  00000+0  67879-3 0  9998
2 67345  42.9995  62.9212 0001538 273.7142 358.2922 15.50529154  5126
STARLINK-36472          
1 67346U 26003N   26034.25002315  .00041534  00000+0  71125-3 0  9995
2 67346  42.9995  62.9164 0001407 258.8366  15.0861 15.50531057  5125
STARLINK-36420          
1 67347U 26003P   26034.25002315  .00041829  00000+0  71631-3 0  9995
2 67347  42.9995  62.9064 0001436 275.6160   2.1428 15.50528217  5137
STARLINK-36467          
1 67348U 26003Q   26034.25002315  .00041574  00000+0  71195-3 0  9998
2 67348  42.9995  62.9120 0001475 273.8958   1.9441 15.50529940  5135
STARLINK-36457          
1 67349U 26003R   26034.25002315  .00041030  00000+0  70276-3 0  9995
2 67349  42.9994  62.9017 0001318 273.7720   5.9044 15.50529764  5140
STARLINK-36475          
1 67350U 26003S   26034.25002315  .00041913  00000+0  71770-3 0  9997
2 67350  42.9995  62.8964 0001388 273.9547   7.6365 15.50528966  5136
STARLINK-36478          
1 67351U 26003T   26034.25002315  .00039868  00000+0  68310-3 0  9990
2 67351  42.9995  62.8920 0000971 265.4511  18.0573 15.50530854  5139
STARLINK-36479          
1 67352U 26003U   26034.25002315  .00039003  00000+0  66846-3 0  9994
2 67352  42.9995  62.8869 0001150 268.2543  17.1709 15.50531864  5142
