CCSDS_OMM_VERS = 2.0
CREATION_DATE  = 
ORIGINATOR     = 

OBJECT_NAME    = STARLINK-36453
OBJECT_ID      = 2026-003H
CENTER_NAME    = EARTH
REF_FRAME      = TEME
TIME_SYSTEM    = UTC
MEAN_ELEMENT_THEORY = SGP/SGP4

EPOCH          = 2026-02-03T06:00:02.000160
MEAN_MOTION    = 15.50522681
ECCENTRICITY   = .000134
INCLINATION    = 42.9995
RA_OF_ASC_NODE = 62.9408
ARG_OF_PERICENTER = 268.2251
MEAN_ANOMALY   = 356.1209

EPHEMERIS_TYPE = 0
CLASSIFICATION_TYPE = U
NORAD_CAT_ID   = 67341
ELEMENT_SET_NO = 999
REV_AT_EPOCH   = 513
BSTAR          = .80738773E-3
MEAN_MOTION_DOT = .47215E-3
MEAN_MOTION_DDOT = 0

CCSDS_OMM_VERS = 2.0
CREATION_DATE  = 
ORIGINATOR     = 

OBJECT_NAME    = STARLINK-36432
OBJECT_ID      = 2026-003J
CENTER_NAME    = EARTH
REF_FRAME      = TEME
TIME_SYSTEM    = UTC
MEAN_ELEMENT_THEORY = SGP/SGP4

EPOCH          = 2026-02-03T06:00:02.000160
MEAN_MOTION    = 15.50527933
ECCENTRICITY   = .00011868
INCLINATION    = 42.9996
RA_OF_ASC_NODE = 62.9359
ARG_OF_PERICENTER = 264.3836
MEAN_ANOMALY   = 1.8737

EPHEMERIS_TYPE = 0
CLASSIFICATION_TYPE = U
NORAD_CAT_ID   = 67342
ELEMENT_SET_NO = 999
REV_AT_EPOCH   = 512
BSTAR          = .71689707E-3
MEAN_MOTION_DOT = .41863E-3
MEAN_MOTION_DDOT = 0

CCSDS_OMM_VERS = 2.0
CREATION_DATE  = 
ORIGINATOR     = 

OBJECT_NAME    = STARLINK-36458
OBJECT_ID      = 2026-003K
CENTER_NAME    = EARTH
REF_FRAME      = TEME
TIME_SYSTEM    = UTC
MEAN_ELEMENT_THEORY = SGP/SGP4

EPOCH          = 2026-02-03T06:00:02.000160
MEAN_MOTION    = 15.50530891
ECCENTRICITY   = .00012193
INCLINATION    = 42.9995
RA_OF_ASC_NODE = 62.9312
ARG_OF_PERICENTER = 266.0780
MEAN_ANOMALY   = 2.0955

EPHEMERIS_TYPE = 0
CLASSIFICATION_TYPE = U
NORAD_CAT_ID   = 67343
ELEMENT_SET_NO = 999
REV_AT_EPOCH   = 513
BSTAR          = .69406927E-3
MEAN_MOTION_DOT = .40517E-3
MEAN_MOTION_DDOT = 0

CCSDS_OMM_VERS = 2.0
CREATION_DATE  = 
ORIGINATOR     = 

OBJECT_NAME    = STARLINK-36422
OBJECT_ID      = 2026-003L
CENTER_NAME    = EARTH
REF_FRAME      = TEME
TIME_SYSTEM    = UTC
MEAN_ELEMENT_THEORY = SGP/SGP4

EPOCH          = 2026-02-03T06:00:02.000160
MEAN_MOTION    = 15.50530101
ECCENTRICITY   = .00011113
INCLINATION    = 42.9995
RA_OF_ASC_NODE = 62.9254
ARG_OF_PERICENTER = 264.5376
MEAN_ANOMALY   = 5.5521

EPHEMERIS_TYPE = 0
CLASSIFICATION_TYPE = U
NORAD_CAT_ID   = 67344
ELEMENT_SET_NO = 999
REV_AT_EPOCH   = 512
BSTAR          = .68562582E-3
MEAN_MOTION_DOT = .40016E-3
MEAN_MOTION_DDOT = 0

CCSDS_OMM_VERS = 2.0
CREATION_DATE  = 
ORIGINATOR     = 

OBJECT_NAME    = STARLINK-35676
OBJECT_ID      = 2026-003M
CENTER_NAME    = EARTH
REF_FRAME      = TEME
TIME_SYSTEM    = UTC
MEAN_ELEMENT_THEORY = SGP/SGP4

EPOCH          = 2026-02-03T06:00:02.000160
MEAN_MOTION    = 15.50529154
ECCENTRICITY   = .00015388
INCLINATION    = 42.9995
RA_OF_ASC_NODE = 62.9212
ARG_OF_PERICENTER = 273.7142
MEAN_ANOMALY   = 358.2922

EPHEMERIS_TYPE = 0
CLASSIFICATION_TYPE = U
NORAD_CAT_ID   = 67345
ELEMENT_SET_NO = 999
REV_AT_EPOCH   = 512
BSTAR          = .67879463E-3
MEAN_MOTION_DOT = .39611E-3
MEAN_MOTION_DDOT = 0

CCSDS_OMM_VERS = 2.0
CREATION_DATE  = 
ORIGINATOR     = 

OBJECT_NAME    = STARLINK-36472
OBJECT_ID      = 2026-003N
CENTER_NAME    = EARTH
REF_FRAME      = TEME
TIME_SYSTEM    = UTC
MEAN_ELEMENT_THEORY = SGP/SGP4

EPOCH          = 2026-02-03T06:00:02.000160
MEAN_MOTION    = 15.50531057
ECCENTRICITY   = .00014073
INCLINATION    = 42.9995
RA_OF_ASC_NODE = 62.9164
ARG_OF_PERICENTER = 258.8366
MEAN_ANOMALY   = 15.0861

EPHEMERIS_TYPE = 0
CLASSIFICATION_TYPE = U
NORAD_CAT_ID   = 67346
ELEMENT_SET_NO = 999
REV_AT_EPOCH   = 512
BSTAR          = .71125281E-3
MEAN_MOTION_DOT = .41534E-3
MEAN_MOTION_DDOT = 0

CCSDS_OMM_VERS = 2.0
CREATION_DATE  = 
ORIGINATOR     = 

OBJECT_NAME    = STARLINK-36420
OBJECT_ID      = 2026-003P
CENTER_NAME    = EARTH
REF_FRAME      = TEME
TIME_SYSTEM    = UTC
MEAN_ELEMENT_THEORY = SGP/SGP4

EPOCH          = 2026-02-03T06:00:02.000160
MEAN_MOTION    = 15.50528217
ECCENTRICITY   = .00014362
INCLINATION    = 42.9995
RA_OF_ASC_NODE = 62.9064
ARG_OF_PERICENTER = 275.6160
MEAN_ANOMALY   = 2.1428

EPHEMERIS_TYPE = 0
CLASSIFICATION_TYPE = U
NORAD_CAT_ID   = 67347
ELEMENT_SET_NO = 999
REV_AT_EPOCH   = 513
BSTAR          = .71631034E-3
MEAN_MOTION_DOT = .41829E-3
MEAN_MOTION_DDOT = 0

CCSDS_OMM_VERS = 2.0
CREATION_DATE  = 
ORIGINATOR     = 

OBJECT_NAME    = STARLINK-36467
OBJECT_ID      = 2026-003Q
CENTER_NAME    = EARTH
REF_FRAME      = TEME
TIME_SYSTEM    = UTC
MEAN_ELEMENT_THEORY = SGP/SGP4

EPOCH          = 2026-02-03T06:00:02.000160
MEAN_MOTION    = 15.50529940
ECCENTRICITY   = .00014755
INCLINATION    = 42.9995
RA_OF_ASC_NODE = 62.9120
ARG_OF_PERICENTER = 273.8958
MEAN_ANOMALY   = 1.9441

EPHEMERIS_TYPE = 0
CLASSIFICATION_TYPE = U
NORAD_CAT_ID   = 67348
ELEMENT_SET_NO = 999
REV_AT_EPOCH   = 513
BSTAR          = .71195442E-3
MEAN_MOTION_DOT = .41574E-3
MEAN_MOTION_DDOT = 0

CCSDS_OMM_VERS = 2.0
CREATION_DATE  = 
ORIGINATOR     = 

OBJECT_NAME    = STARLINK-36457
OBJECT_ID      = 2026-003R
CENTER_NAME    = EARTH
REF_FRAME      = TEME
TIME_SYSTEM    = UTC
MEAN_ELEMENT_THEORY = SGP/SGP4

EPOCH          = 2026-02-03T06:00:02.000160
MEAN_MOTION    = 15.50529764
ECCENTRICITY   = .00013188
INCLINATION    = 42.9994
RA_OF_ASC_NODE = 62.9017
ARG_OF_PERICENTER = 273.7720
MEAN_ANOMALY   = 5.9044

EPHEMERIS_TYPE = 0
CLASSIFICATION_TYPE = U
NORAD_CAT_ID   = 67349
ELEMENT_SET_NO = 999
REV_AT_EPOCH   = 514
BSTAR          = .70275874E-3
MEAN_MOTION_DOT = .4103E-3
MEAN_MOTION_DDOT = 0

CCSDS_OMM_VERS = 2.0
CREATION_DATE  = 
ORIGINATOR     = 

OBJECT_NAME    = STARLINK-36475
OBJECT_ID      = 2026-003S
CENTER_NAME    = EARTH
REF_FRAME      = TEME
TIME_SYSTEM    = UTC
MEAN_ELEMENT_THEORY = SGP/SGP4

EPOCH          = 2026-02-03T06:00:02.000160
MEAN_MOTION    = 15.50528966
ECCENTRICITY   = .00013889
INCLINATION    = 42.9995
RA_OF_ASC_NODE = 62.8964
ARG_OF_PERICENTER = 273.9547
MEAN_ANOMALY   = 7.6365

EPHEMERIS_TYPE = 0
CLASSIFICATION_TYPE = U
NORAD_CAT_ID   = 67350
ELEMENT_SET_NO = 999
REV_AT_EPOCH   = 513
BSTAR          = .71770459E-3
MEAN_MOTION_DOT = .41913E-3
MEAN_MOTION_DDOT = 0

CCSDS_OMM_VERS = 2.0
CREATION_DATE  = 
ORIGINATOR     = 

OBJECT_NAME    = STARLINK-36478
OBJECT_ID      = 2026-003T
CENTER_NAME    = EARTH
REF_FRAME      = TEME
TIME_SYSTEM    = UTC
MEAN_ELEMENT_THEORY = SGP/SGP4

EPOCH          = 2026-02-03T06:00:02.000160
MEAN_MOTION    = 15.50530854
ECCENTRICITY   = .00009713
INCLINATION    = 42.9995
RA_OF_ASC_NODE = 62.8920
ARG_OF_PERICENTER = 265.4511
MEAN_ANOMALY   = 18.0573

EPHEMERIS_TYPE = 0
CLASSIFICATION_TYPE = U
NORAD_CAT_ID   = 67351
ELEMENT_SET_NO = 999
REV_AT_EPOCH   = 513
BSTAR          = .68310315E-3
MEAN_MOTION_DOT = .39868E-3
MEAN_MOTION_DDOT = 0

CCSDS_OMM_VERS = 2.0
CREATION_DATE  = 
ORIGINATOR     = 

OBJECT_NAME    = STARLINK-36479
OBJECT_ID      = 2026-003U
CENTER_NAME    = EARTH
REF_FRAME      = TEME
TIME_SYSTEM    = UTC
MEAN_ELEMENT_THEORY = SGP/SGP4

EPOCH          = 2026-02-03T06:00:02.000160
MEAN_MOTION    = 15.50531864
ECCENTRICITY   = .00011509
INCLINATION    = 42.9995
RA_OF_ASC_NODE = 62.8869
ARG_OF_PERICENTER = 268.2543
MEAN_ANOMALY   = 17.1709

EPHEMERIS_TYPE = 0
CLASSIFICATION_TYPE = U
NORAD_CAT_ID   = 67352
ELEMENT_SET_NO = 999
REV_AT_EPOCH   = 514
BSTAR          = .66846454E-3
MEAN_MOTION_DOT = .39003E-3
MEAN_MOTION_DDOT = 0

